0 SBS 3
1 13651U 82110B   13285.85838860  .00000103  00000-0  10000-3 0  5649
2 13651 014.6448 017.2876 0005390 033.2795 326.7514 00.99924775 85678
0 SBS 3
1 13651U 82110B   13287.85978977  .00000103  00000-0  10000-3 0  5656
2 13651 014.6467 017.2660 0005015 030.4418 329.5747 00.99925577 85697
0 SBS 3
1 13651U 82110B   13289.86117577  .00000104  00000-0  10000-3 0  5662
2 13651 014.6484 017.2442 0004926 030.0127 329.9957 00.99926448 85715
0 SBS 3
1 13651U 82110B   13289.86118146  .00000104  00000-0  10000-3 0  5676
2 13651 014.6485 017.2441 0004578 027.5401 332.4672 00.99926452 85712
0 SBS 3
1 13651U 82110B   13294.86459732  .00000104  00000-0  10000-3 0  5682
2 13651 014.6530 017.1901 0004465 027.5972 332.4104 00.99928829 85766
